{"fetched_at":"2026-03-29T02:12:04Z","count":15717,"tles":[{"name":"USA 65 (DSP 15)","line1":"1 20929U 90095A   26087.57010013 -.00000198  00000+0  00000+0 0  9992","line2":"2 20929  14.0537 344.6055 0003896  60.2099 114.3099  0.98398064 24676","category":"Military"}]}