{
  "norad_id": 20929,
  "name": "USA 65 (DSP 15)",
  "history": [
    {
      "epoch": "2026-03-28T13:40:56.650368Z",
      "apogee_km": 36336.82001969363,
      "perigee_km": 36303.549487383265,
      "latitude_deg": 1.31290659313642,
      "longitude_deg": 128.13366501110602,
      "height_km": 36326.524332978246,
      "semi_major_axis_km": 42698.32175353845,
      "eccentricity": 0.0003896,
      "inclination_deg": 14.0537,
      "raan_deg": 344.6055,
      "arg_perigee_deg": 60.2099,
      "mean_anomaly_deg": 114.3099,
      "mean_motion_rev_day": 0.98398064
    }
  ]
}